{"type": "FeatureCollection", "features": [ {"type": "Feature", "properties": {"norad_id": 66593, "name": "STARLINK-36031", "group": "last-30-days", "lat": -7.5646271510240775, "lon": -124.49042674613082, "alt_km": 341.2829600790301, "timestamp": "2025-12-04T03:47:53.337018+00:00", "meta": {"OBJECT_NAME": "STARLINK-36031", "OBJECT_ID": "2025-270F", "EPOCH": "2025-12-03T18:43:24.870144", "MEAN_MOTION": 15.76634833, "ECCENTRICITY": 0.0005734, "INCLINATION": 42.9977, "RA_OF_ASC_NODE": 246.004, "ARG_OF_PERICENTER": 238.2252, "MEAN_ANOMALY": 121.8059, "EPHEMERIS_TYPE": 0, "CLASSIFICATION_TYPE": "U", "NORAD_CAT_ID": 66593, "ELEMENT_SET_NO": 999, "REV_AT_EPOCH": 294, "BSTAR": 0.0015875, "MEAN_MOTION_DOT": 0.00269762, "MEAN_MOTION_DDOT": 0}, "tle": {"line1": "1 66593U 25270F   25337.78014896  .00269762  00000+0  15875-2 0  9997", "line2": "2 66593  42.9977 246.0040 0005734 238.2252 121.8059 15.76634833  2945"}}, "geometry": {"type": "Point", "coordinates": [-124.49042674613082, -7.5646271510240775]}}, {"type": "Feature", "properties": {"norad_id": 66594, "name": "STARLINK-36032", "group": "last-30-days", "lat": -7.560099859411658, "lon": -124.48524796794615, "alt_km": 345.8670400253786, "timestamp": "2025-12-04T03:47:53.337030+00:00", "meta": {"OBJECT_NAME": "STARLINK-36032", "OBJECT_ID": "2025-270G", "EPOCH": "2025-12-03T08:00:01.999008", "MEAN_MOTION": 15.77566251, "ECCENTRICITY": 0.0001721, "INCLINATION": 42.9988, "RA_OF_ASC_NODE": 248.7168, "ARG_OF_PERICENTER": 266.4845, "MEAN_ANOMALY": 76.2615, "EPHEMERIS_TYPE": 0, "CLASSIFICATION_TYPE": "U", "NORAD_CAT_ID": 66594, "ELEMENT_SET_NO": 999, "REV_AT_EPOCH": 262, "BSTAR": -0.010797, "MEAN_MOTION_DOT": -0.01647738, "MEAN_MOTION_DDOT": 0}, "tle": {"line1": "1 66594U 25270G   25337.33335647 -.01647738  00000+0 -10797-1 0  9992", "line2": "2 66594  42.9988 248.7168 0001721 266.4845  76.2615 15.77566251  2626"}}, "geometry": {"type": "Point", "coordinates": [-124.48524796794615, -7.560099859411658]}}, {"type": "Feature", "properties": {"norad_id": 66595, "name": "STARLINK-35711", "group": "last-30-days", "lat": -6.285871407237381, "lon": -123.09066883739519, "alt_km": 345.85136823433095, "timestamp": "2025-12-04T03:47:53.337041+00:00", "meta": {"OBJECT_NAME": "STARLINK-35711", "OBJECT_ID": "2025-270H", "EPOCH": "2025-12-03T08:00:01.999008", "MEAN_MOTION": 15.77519386, "ECCENTRICITY": 0.0001794, "INCLINATION": 42.9989, "RA_OF_ASC_NODE": 248.7112, "ARG_OF_PERICENTER": 269.6847, "MEAN_ANOMALY": 75.1247, "EPHEMERIS_TYPE": 0, "CLASSIFICATION_TYPE": "U", "NORAD_CAT_ID": 66595, "ELEMENT_SET_NO": 999, "REV_AT_EPOCH": 299, "BSTAR": -0.01092, "MEAN_MOTION_DOT": -0.01661351, "MEAN_MOTION_DDOT": 0}, "tle": {"line1": "1 66595U 25270H   25337.33335647 -.01661351  00000+0 -10920-1 0  9998", "line2": "2 66595  42.9989 248.7112 0001794 269.6847  75.1247 15.77519386  2990"}}, "geometry": {"type": "Point", "coordinates": [-123.09066883739519, -6.285871407237381]}}, {"type": "Feature", "properties": {"norad_id": 66596, "name": "STARLINK-35811", "group": "last-30-days", "lat": -5.008041543734467, "lon": -121.70271023336095, "alt_km": 345.75075102573646, "timestamp": "2025-12-04T03:47:53.337051+00:00", "meta": {"OBJECT_NAME": "STARLINK-35811", "OBJECT_ID": "2025-270J", "EPOCH": "2025-12-03T08:00:01.999008", "MEAN_MOTION": 15.77481419, "ECCENTRICITY": 0.0001709, "INCLINATION": 42.9988, "RA_OF_ASC_NODE": 248.7061, "ARG_OF_PERICENTER": 274.7998, "MEAN_ANOMALY": 72.0379, "EPHEMERIS_TYPE": 0, "CLASSIFICATION_TYPE": "U", "NORAD_CAT_ID": 66596, "ELEMENT_SET_NO": 999, "REV_AT_EPOCH": 299, "BSTAR": -0.011012, "MEAN_MOTION_DOT": -0.01671161, "MEAN_MOTION_DDOT": 0}, "tle": {"line1": "1 66596U 25270J   25337.33335647 -.01671161  00000+0 -11012-1 0  9992", "line2": "2 66596  42.9988 248.7061 0001709 274.7998  72.0379 15.77481419  2990"}}, "geometry": {"type": "Point", "coordinates": [-121.70271023336095, -5.008041543734467]}}, {"type": "Feature", "properties": {"norad_id": 66597, "name": "STARLINK-35820", "group": "last-30-days", "lat": -3.715294600262056, "lon": -120.30689007437383, "alt_km": 345.8895626178464, "timestamp": "2025-12-04T03:47:53.337061+00:00", "meta": {"OBJECT_NAME": "STARLINK-35820", "OBJECT_ID": "2025-270K", "EPOCH": "2025-12-03T08:00:01.999008", "MEAN_MOTION": 15.7746612, "ECCENTRICITY": 0.0001765, "INCLINATION": 42.9989, "RA_OF_ASC_NODE": 248.7015, "ARG_OF_PERICENTER": 269.627, "MEAN_ANOMALY": 79.1738, "EPHEMERIS_TYPE": 0, "CLASSIFICATION_TYPE": "U", "NORAD_CAT_ID": 66597, "ELEMENT_SET_NO": 999, "REV_AT_EPOCH": 299, "BSTAR": -0.011062, "MEAN_MOTION_DOT": -0.01676847, "MEAN_MOTION_DDOT": 0}, "tle": {"line1": "1 66597U 25270K   25337.33335647 -.01676847  00000+0 -11062-1 0  9994", "line2": "2 66597  42.9989 248.7015 0001765 269.6270  79.1738 15.77466120  2998"}}, "geometry": {"type": "Point", "coordinates": [-120.30689007437383, -3.715294600262056]}}, {"type": "Feature", "properties": {"norad_id": 66598, "name": "STARLINK-35981", "group": "last-30-days", "lat": -0.47673596694257564, "lon": -116.83436750067924, "alt_km": 337.7394916385674, "timestamp": "2025-12-04T03:47:53.337071+00:00", "meta": {"OBJECT_NAME": "STARLINK-35981", "OBJECT_ID": "2025-270L", "EPOCH": "2025-12-03T18:40:28.684992", "MEAN_MOTION": 15.76890341, "ECCENTRICITY": 0.0009513, "INCLINATION": 43, "RA_OF_ASC_NODE": 245.987, "ARG_OF_PERICENTER": 351.9264, "MEAN_ANOMALY": 8.1451, "EPHEMERIS_TYPE": 0, "CLASSIFICATION_TYPE": "U", "NORAD_CAT_ID": 66598, "ELEMENT_SET_NO": 999, "REV_AT_EPOCH": 278, "BSTAR": -0.015967, "MEAN_MOTION_DOT": -0.02319445, "MEAN_MOTION_DDOT": 0}, "tle": {"line1": "1 66598U 25270L   25337.77810978 -.02319445  00000+0 -15967-1 0  9995", "line2": "2 66598  43.0000 245.9870 0009513 351.9264   8.1451 15.76890341  2786"}}, "geometry": {"type": "Point", "coordinates": [-116.83436750067924, -0.47673596694257564]}}, {"type": "Feature", "properties": {"norad_id": 66599, "name": "STARLINK-35930", "group": "last-30-days", "lat": 2.511741484082633, "lon": -113.6364015206159, "alt_km": 333.0755102160347, "timestamp": "2025-12-04T03:47:53.337084+00:00", "meta": {"OBJECT_NAME": "STARLINK-35930", "OBJECT_ID": "2025-270M", "EPOCH": "2025-12-03T11:04:17.203872", "MEAN_MOTION": 15.7770827, "ECCENTRICITY": 0.0003826, "INCLINATION": 42.998, "RA_OF_ASC_NODE": 247.9123, "ARG_OF_PERICENTER": 352.3855, "MEAN_ANOMALY": 7.6956, "EPHEMERIS_TYPE": 0, "CLASSIFICATION_TYPE": "U", "NORAD_CAT_ID": 66599, "ELEMENT_SET_NO": 999, "REV_AT_EPOCH": 289, "BSTAR": 0.0011537, "MEAN_MOTION_DOT": 0.00203832, "MEAN_MOTION_DDOT": 0}, "tle": {"line1": "1 66599U 25270M   25337.46131023  .00203832  00000+0  11537-2 0  9997", "line2": "2 66599  42.9980 247.9123 0003826 352.3855   7.6956 15.77708270  2893"}}, "geometry": {"type": "Point", "coordinates": [-113.6364015206159, 2.511741484082633]}}, {"type": "Feature", "properties": {"norad_id": 66600, "name": "STARLINK-35980", "group": "last-30-days", "lat": 0.1497383978958177, "lon": -116.16427578826, "alt_km": 345.9187631128316, "timestamp": "2025-12-04T03:47:53.337095+00:00", "meta": {"OBJECT_NAME": "STARLINK-35980", "OBJECT_ID": "2025-270N", "EPOCH": "2025-12-03T08:00:01.999008", "MEAN_MOTION": 15.77393237, "ECCENTRICITY": 0.0001792, "INCLINATION": 42.9988, "RA_OF_ASC_NODE": 248.6866, "ARG_OF_PERICENTER": 269.4305, "MEAN_ANOMALY": 85.3389, "EPHEMERIS_TYPE": 0, "CLASSIFICATION_TYPE": "U", "NORAD_CAT_ID": 66600, "ELEMENT_SET_NO": 999, "REV_AT_EPOCH": 279, "BSTAR": -0.011303, "MEAN_MOTION_DOT": -0.01704213, "MEAN_MOTION_DDOT": 0}, "tle": {"line1": "1 66600U 25270N   25337.33335647 -.01704213  00000+0 -11303-1 0  9996", "line2": "2 66600  42.9988 248.6866 0001792 269.4305  85.3389 15.77393237  2799"}}, "geometry": {"type": "Point", "coordinates": [-116.16427578826, 0.1497383978958177]}}, {"type": "Feature", "properties": {"norad_id": 66601, "name": "STARLINK-35978", "group": "last-30-days", "lat": 4.494910444442092, "lon": -111.50156869556899, "alt_km": 335.0698496241912, "timestamp": "2025-12-04T03:47:53.337106+00:00", "meta": {"OBJECT_NAME": "STARLINK-35978", "OBJECT_ID": "2025-270P", "EPOCH": "2025-12-03T11:03:16.825824", "MEAN_MOTION": 15.77522655, "ECCENTRICITY": 0.0003141, "INCLINATION": 42.998, "RA_OF_ASC_NODE": 247.9074, "ARG_OF_PERICENTER": 350.3691, "MEAN_ANOMALY": 9.7118, "EPHEMERIS_TYPE": 0, "CLASSIFICATION_TYPE": "U", "NORAD_CAT_ID": 66601, "ELEMENT_SET_NO": 999, "REV_AT_EPOCH": 273, "BSTAR": -0.00080516, "MEAN_MOTION_DOT": -0.00136391, "MEAN_MOTION_DDOT": 0}, "tle": {"line1": "1 66601U 25270P   25337.46061141 -.00136391  00000+0 -80516-3 0  9995", "line2": "2 66601  42.9980 247.9074 0003141 350.3691   9.7118 15.77522655  2735"}}, "geometry": {"type": "Point", "coordinates": [-111.50156869556899, 4.494910444442092]}}, {"type": "Feature", "properties": {"norad_id": 66602, "name": "STARLINK-36050", "group": "last-30-days", "lat": 5.880694676289141, "lon": -110.00062261509554, "alt_km": 334.98912245502106, "timestamp": "2025-12-04T03:47:53.337117+00:00", "meta": {"OBJECT_NAME": "STARLINK-36050", "OBJECT_ID": "2025-270Q", "EPOCH": "2025-12-03T11:02:45.964608", "MEAN_MOTION": 15.77499641, "ECCENTRICITY": 0.0002851, "INCLINATION": 42.9978, "RA_OF_ASC_NODE": 247.9037, "ARG_OF_PERICENTER": 352.3597, "MEAN_ANOMALY": 7.7229, "EPHEMERIS_TYPE": 0, "CLASSIFICATION_TYPE": "U", "NORAD_CAT_ID": 66602, "ELEMENT_SET_NO": 999, "REV_AT_EPOCH": 279, "BSTAR": -0.00057894, "MEAN_MOTION_DOT": -0.00098533, "MEAN_MOTION_DDOT": 0}, "tle": {"line1": "1 66602U 25270Q   25337.46025422 -.00098533  00000+0 -57894-3 0  9996", "line2": "2 66602  42.9978 247.9037 0002851 352.3597   7.7229 15.77499641  2791"}}, "geometry": {"type": "Point", "coordinates": [-110.00062261509554, 5.880694676289141]}}]}